{
  "type": "FeatureCollection",
  "features": [
    {
      "type": "Feature",
      "properties": {
        "norad_id": 66415,
        "name": "HULIANWANG DIGUI 13D",
        "group": "last-30-days",
        "lat": -4.703535259207725,
        "lon": 100.71989333700873,
        "alt_km": 829.273529287655,
        "timestamp": "2025-12-09T05:43:19.508105+00:00",
        "meta_object_name": "HULIANWANG DIGUI 13D",
        "meta_object_id": "2025-258D",
        "meta_epoch": "2025-12-08T08:35:29.309568",
        "meta_mean_motion": 14.20669727,
        "meta_eccentricity": 0.00072244,
        "meta_inclination": 50.0037,
        "meta_ra_of_asc_node": 280.4475,
        "meta_arg_of_pericenter": 349.9452,
        "meta_mean_anomaly": 10.1314,
        "meta_ephemeris_type": 0,
        "meta_classification_type": "U",
        "meta_norad_cat_id": 66415,
        "meta_element_set_no": 999,
        "meta_rev_at_epoch": 403,
        "meta_bstar": 0.00031612211,
        "meta_mean_motion_dot": 5.27e-06,
        "meta_mean_motion_ddot": 0,
        "tle_line1": "1 66415U 25258D   25342.35797812  .00000527  00000+0  31612-3 0  9991",
        "tle_line2": "2 66415  50.0037 280.4475 0007224 349.9452  10.1314 14.20669727  4031"
      },
      "geometry": {
        "type": "Point",
        "coordinates": [
          100.71989333700873,
          -4.703535259207725
        ]
      }
    },
    {
      "type": "Feature",
      "properties": {
        "norad_id": 66416,
        "name": "HULIANWANG DIGUI 13E",
        "group": "last-30-days",
        "lat": 17.755181342713747,
        "lon": 81.22427854063292,
        "alt_km": 826.997556941501,
        "timestamp": "2025-12-09T05:43:19.508116+00:00",
        "meta_object_name": "HULIANWANG DIGUI 13E",
        "meta_object_id": "2025-258E",
        "meta_epoch": "2025-12-08T08:43:20.952480",
        "meta_mean_motion": 14.20131727,
        "meta_eccentricity": 0.00059242,
        "meta_inclination": 50.0052,
        "meta_ra_of_asc_node": 280.4795,
        "meta_arg_of_pericenter": 347.9368,
        "meta_mean_anomaly": 12.14,
        "meta_ephemeris_type": 0,
        "meta_classification_type": "U",
        "meta_norad_cat_id": 66416,
        "meta_element_set_no": 999,
        "meta_rev_at_epoch": 403,
        "meta_bstar": 0.00040678029,
        "meta_mean_motion_dot": 7.15e-06,
        "meta_mean_motion_ddot": 0,
        "tle_line1": "1 66416U 25258E   25342.36343695  .00000715  00000+0  40678-3 0  9990",
        "tle_line2": "2 66416  50.0052 280.4795 0005924 347.9368  12.1400 14.20131727  4035"
      },
      "geometry": {
        "type": "Point",
        "coordinates": [
          81.22427854063292,
          17.755181342713747
        ]
      }
    },
    {
      "type": "Feature",
      "properties": {
        "norad_id": 66417,
        "name": "HULIANWANG DIGUI 13F",
        "group": "last-30-days",
        "lat": 10.530412547338553,
        "lon": 87.79666696267277,
        "alt_km": 827.4268170090627,
        "timestamp": "2025-12-09T05:43:19.508126+00:00",
        "meta_object_name": "HULIANWANG DIGUI 13F",
        "meta_object_id": "2025-258F",
        "meta_epoch": "2025-12-08T13:44:44.329056",
        "meta_mean_motion": 14.20307849,
        "meta_eccentricity": 0.00056434,
        "meta_inclination": 49.9999,
        "meta_ra_of_asc_node": 279.5633,
        "meta_arg_of_pericenter": 346.8249,
        "meta_mean_anomaly": 13.2514,
        "meta_ephemeris_type": 0,
        "meta_classification_type": "U",
        "meta_norad_cat_id": 66417,
        "meta_element_set_no": 999,
        "meta_rev_at_epoch": 406,
        "meta_bstar": 0.00035158092,
        "meta_mean_motion_dot": 5.99e-06,
        "meta_mean_motion_ddot": 0,
        "tle_line1": "1 66417U 25258F   25342.57273529  .00000599  00000+0  35158-3 0  9999",
        "tle_line2": "2 66417  49.9999 279.5633 0005643 346.8249  13.2514 14.20307849  4068"
      },
      "geometry": {
        "type": "Point",
        "coordinates": [
          87.79666696267277,
          10.530412547338553
        ]
      }
    },
    {
      "type": "Feature",
      "properties": {
        "norad_id": 66418,
        "name": "HULIANWANG DIGUI 13G",
        "group": "last-30-days",
        "lat": -11.364256337306351,
        "lon": 106.44158924655028,
        "alt_km": 828.4693059124374,
        "timestamp": "2025-12-09T05:43:19.508137+00:00",
        "meta_object_name": "HULIANWANG DIGUI 13G",
        "meta_object_id": "2025-258G",
        "meta_epoch": "2025-12-08T13:36:58.304736",
        "meta_mean_motion": 14.20782766,
        "meta_eccentricity": 0.00059872,
        "meta_inclination": 49.9993,
        "meta_ra_of_asc_node": 279.538,
        "meta_arg_of_pericenter": 346.7253,
        "meta_mean_anomaly": 13.35,
        "meta_ephemeris_type": 0,
        "meta_classification_type": "U",
        "meta_norad_cat_id": 66418,
        "meta_element_set_no": 999,
        "meta_rev_at_epoch": 406,
        "meta_bstar": 0.00030017826,
        "meta_mean_motion_dot": 4.94e-06,
        "meta_mean_motion_ddot": 0,
        "tle_line1": "1 66418U 25258G   25342.56734149  .00000494  00000+0  30018-3 0  9993",
        "tle_line2": "2 66418  49.9993 279.5380 0005987 346.7253  13.3500 14.20782766  4068"
      },
      "geometry": {
        "type": "Point",
        "coordinates": [
          106.44158924655028,
          -11.364256337306351
        ]
      }
    },
    {
      "type": "Feature",
      "properties": {
        "norad_id": 66419,
        "name": "HULIANWANG DIGUI 13H",
        "group": "last-30-days",
        "lat": -18.69015172818517,
        "lon": 113.20344856151561,
        "alt_km": 827.8622562284027,
        "timestamp": "2025-12-09T05:43:19.508148+00:00",
        "meta_object_name": "HULIANWANG DIGUI 13H",
        "meta_object_id": "2025-258H",
        "meta_epoch": "2025-12-08T10:11:43.764576",
        "meta_mean_motion": 14.2089678,
        "meta_eccentricity": 0.00052731,
        "meta_inclination": 50.0007,
        "meta_ra_of_asc_node": 280.1123,
        "meta_arg_of_pericenter": 342.4085,
        "meta_mean_anomaly": 17.6643,
        "meta_ephemeris_type": 0,
        "meta_classification_type": "U",
        "meta_norad_cat_id": 66419,
        "meta_element_set_no": 999,
        "meta_rev_at_epoch": 404,
        "meta_bstar": 0.00028195579,
        "meta_mean_motion_dot": 4.56e-06,
        "meta_mean_motion_ddot": 0,
        "tle_line1": "1 66419U 25258H   25342.42481209  .00000456  00000+0  28196-3 0  9997",
        "tle_line2": "2 66419  50.0007 280.1123 0005273 342.4085  17.6643 14.20896780  4040"
      },
      "geometry": {
        "type": "Point",
        "coordinates": [
          113.20344856151561,
          -18.69015172818517
        ]
      }
    },
    {
      "type": "Feature",
      "properties": {
        "norad_id": 66420,
        "name": "HULIANWANG DIGUI 13J",
        "group": "last-30-days",
        "lat": -24.79328864346476,
        "lon": 119.51576164176156,
        "alt_km": 827.5685791154228,
        "timestamp": "2025-12-09T05:43:19.508158+00:00",
        "meta_object_name": "HULIANWANG DIGUI 13J",
        "meta_object_id": "2025-258J",
        "meta_epoch": "2025-12-08T08:28:13.755936",
        "meta_mean_motion": 14.2106919,
        "meta_eccentricity": 0.00048643,
        "meta_inclination": 50.0024,
        "meta_ra_of_asc_node": 280.4093,
        "meta_arg_of_pericenter": 350.6291,
        "meta_mean_anomaly": 9.4529,
        "meta_ephemeris_type": 0,
        "meta_classification_type": "U",
        "meta_norad_cat_id": 66420,
        "meta_element_set_no": 999,
        "meta_rev_at_epoch": 402,
        "meta_bstar": 0.00028046556,
        "meta_mean_motion_dot": 4.54e-06,
        "meta_mean_motion_ddot": 0,
        "tle_line1": "1 66420U 25258J   25342.35293699  .00000454  00000+0  28047-3 0  9998",
        "tle_line2": "2 66420  50.0024 280.4093 0004864 350.6291   9.4529 14.21069190  4023"
      },
      "geometry": {
        "type": "Point",
        "coordinates": [
          119.51576164176156,
          -24.79328864346476
        ]
      }
    },
    {
      "type": "Feature",
      "properties": {
        "norad_id": 66421,
        "name": "CZ-12 R/B",
        "group": "last-30-days",
        "lat": -49.97740801003158,
        "lon": -177.1484929635273,
        "alt_km": 716.6335337389146,
        "timestamp": "2025-12-09T05:43:19.508169+00:00",
        "meta_object_name": "CZ-12 R/B",
        "meta_object_id": "2025-258K",
        "meta_epoch": "2025-12-08T13:30:35.373024",
        "meta_mean_motion": 14.4232198,
        "meta_eccentricity": 0.00645125,
        "meta_inclination": 49.9961,
        "meta_ra_of_asc_node": 276.0723,
        "meta_arg_of_pericenter": 234.3839,
        "meta_mean_anomaly": 125.1061,
        "meta_ephemeris_type": 0,
        "meta_classification_type": "U",
        "meta_norad_cat_id": 66421,
        "meta_element_set_no": 999,
        "meta_rev_at_epoch": 411,
        "meta_bstar": 0.0001561766,
        "meta_mean_motion_dot": 3.62e-06,
        "meta_mean_motion_ddot": 0,
        "tle_line1": "1 66421U 25258K   25342.56290941  .00000362  00000+0  15618-3 0  9997",
        "tle_line2": "2 66421  49.9961 276.0723 0064512 234.3839 125.1061 14.42321980  4112"
      },
      "geometry": {
        "type": "Point",
        "coordinates": [
          -177.1484929635273,
          -49.97740801003158
        ]
      }
    }
  ]
}